{"generatedAt":"2026-04-17T07:58:35.246967Z","satellites":[{"name":"KUIPER-00231","tle1":"1 68580C 26072H   26107.12751157  .00001335  00000+0  35073-4 0  1073","tle2":"2 68580  51.8730 112.1626 0002715 122.6647  10.0396 15.37993516    14"},{"name":"KUIPER-00234","tle1":"1 68581C 26072J   26107.12402778  .00001816  00000+0  47051-4 0  1079","tle2":"2 68581  51.8741 112.1452 0002250 108.5185  20.9922 15.38421954    16"},{"name":"KUIPER-00236","tle1":"1 68582C 26072K   26107.12439815  .00001714  00000+0  44563-4 0  1074","tle2":"2 68582  51.8744 112.1475 0002670 113.2027  15.5178 15.38322038    15"},{"name":"KUIPER-00244","tle1":"1 68583C 26072L   26107.12820602  .00001123  00000+0  29573-4 0  1071","tle2":"2 68583  51.8741 112.1687 0003942 136.1986 354.6366 15.37937198    13"},{"name":"KUIPER-00253","tle1":"1 68584C 26072M   26107.07763889  .00001267  00000+0  33817-4 0  1074","tle2":"2 68584  51.8699 112.4566 0005562 144.3449  46.8508 15.37512433    19"},{"name":"KUIPER-00254","tle1":"1 68585C 26072N   26107.13195602 -.00001033  00000+0 -28097-4 0  1071","tle2":"2 68585  51.8702 112.2484 0007587 149.9559 315.2470 15.36912700    15"},{"name":"KUIPER-00263","tle1":"1 68586C 26072P   26107.13464120  .00002399  00000+0  62018-4 0  1071","tle2":"2 68586  51.8750 112.0771 0002082  80.8047 113.7679 15.38492341    14"},{"name":"KUIPER-00269","tle1":"1 68587C 26072Q   26107.13054398  .00000737  00000+0  19569-4 0  1071","tle2":"2 68587  51.8725 112.1813 0004513 126.8956   6.2954 15.37654725    13"},{"name":"KUIPER-00272","tle1":"1 68588C 26072R   26107.13290509  .00000229  00000+0  61176-5 0  1076","tle2":"2 68588  51.8709 112.1965 0005800 141.6677 351.8776 15.37423623    11"},{"name":"KUIPER-00285","tle1":"1 68589C 26072S   26107.13342593  .00000014  00000+0  36519-6 0  1074","tle2":"2 68589  51.8718 112.2032 0006268 147.8790 343.8822 15.37331570    13"},{"name":"KUIPER-00286","tle1":"1 68590C 26072T   26107.12996528  .00000840  00000+0  22239-4 0  1077","tle2":"2 68590  51.8716 112.1799 0004186 129.9873   2.4420 15.37753874    19"},{"name":"KUIPER-00289","tle1":"1 68591C 26072U   26107.09142361 -.00001083  00000+0 -30278-4 0  1076","tle2":"2 68591  51.8643 112.5287 0010670 164.1571  34.0045 15.36013958    11"},{"name":"KUIPER-00290","tle1":"1 68592C 26072V   26107.09071759 -.00001058  00000+0 -29560-4 0  1073","tle2":"2 68592  51.8627 112.5245 0010865 161.4305  36.0295 15.36037471    14"},{"name":"KUIPER-00293","tle1":"1 68593C 26072W   26107.17788194 -.00006310  00000+0 -17875-3 0  1072","tle2":"2 68593  51.8628 112.1362 0011386 165.5517 138.1722 15.35613782    14"},{"name":"KUIPER-00294","tle1":"1 68594C 26072X   26107.09733796 -.00001277  00000+0 -35431-4 0  1078","tle2":"2 68594  51.8665 112.4747 0009541 161.2715  82.7462 15.36281870    14"},{"name":"KUIPER-00296","tle1":"1 68595C 26072Y   26107.08447917 -.00000386  00000+0 -10588-4 0  1071","tle2":"2 68595  51.8684 112.5026 0008357 154.7093  35.3538 15.36671093    15"},{"name":"KUIPER-00297","tle1":"1 68596C 26072Z   26107.09835648 -.00001372  00000+0 -38231-4 0  1076","tle2":"2 68596  51.8614 112.4776 0009777 162.1171  82.1294 15.36127122    15"},{"name":"KUIPER-00300","tle1":"1 68597C 26072AA  26107.13759259 -.00000809  00000+0 -22038-4 0  1077","tle2":"2 68597  51.8658 112.2269 0007974 155.0417 338.0005 15.36857764    15"},{"name":"KUIPER-00301","tle1":"1 68598C 26072AB  26107.14142361 -.00001128  00000+0 -31053-4 0  1071","tle2":"2 68598  51.8637 112.2368 0008641 158.3001 341.3230 15.36531627    14"},{"name":"KUIPER-00304","tle1":"1 68599C 26072AC  26107.08620370 -.00000684  00000+0 -18874-4 0  1078","tle2":"2 68599  51.8650 112.5125 0009292 157.8564  32.0514 15.36439805    19"},{"name":"KUIPER-00317","tle1":"1 68600C 26072AD  26107.13968750 -.00000871  00000+0 -23804-4 0  1071","tle2":"2 68600  51.8671 112.2272 0008404 150.3262 349.4232 15.36757900    13"},{"name":"KUIPER-00320","tle1":"1 68601C 26072AE  26107.09034722 -.00001071  00000+0 -30025-4 0  1076","tle2":"2 68601  51.8591 112.5357 0010991 164.1984  25.0295 15.35948030    11"}]}